COSMOS 1892             
1 18421U 87088A   20289.90080991  .00000680  00000-0  32439-4 0  9993
2 18421  82.5001 154.3435 0015472  13.6551 346.5097 15.17255840802810
SL-14 R/B               
1 18749U 88001B   20289.97560844  .00000055  00000-0  38580-5 0  9999
2 18749  82.5139 244.6823 0017192 260.4797 163.6234 14.83229511749734
COSMOS 1933             
1 18958U 88020A   20289.90250610  .00000682  00000-0  47491-4 0  9998
2 18958  82.5327   9.2789 0013054 100.7496 259.5201 15.03774098753187
SL-3 R/B                
1 19046U 88032B   20290.18345163  .00000171  00000-0  16972-4 0  9993
2 19046  97.4011 305.8722 0038702 152.6442 207.6833 15.02775116755387
SL-16 R/B               
1 19120U 88039B   20290.20537459 -.00000088  00000-0 -19205-4 0  9998
2 19120  71.0117 273.3673 0019983 125.6923 234.6065 14.19206263679058
COSMOS 1953             
1 19210U 88050A   20290.10677814  .00000261  00000-0  15811-4 0  9990
2 19210  82.5143 292.7050 0014348  69.6612 290.6155 15.06045443760950
SL-8 R/B                
1 19257U 88053B   20290.05571145  .00000108  00000-0  44619-4 0  9996
2 19257  74.0474 139.2324 0019422  88.4690  21.8929 14.37485076693610
COSMOS 1975             
1 19573U 88093A   20290.03663275  .00000851  00000-0  57930-4 0  9990
2 19573  82.5196 247.3643 0015534 109.3707 250.9200 15.04945969742780
SL-14 R/B               
1 19574U 88093B   20290.19508586  .00000066  00000-0  50650-5 0  9992
2 19574  82.5299  87.1418 0023010  65.6584 106.9228 14.83340050729859
SL-16 R/B               
1 19650U 88102B   20290.15986779  .00000149  00000-0  10003-3 0  9996
2 19650  71.0009 336.0894 0012607 137.4230 222.7873 14.15795712648246
INTERCOSMOS 24          
1 20261U 89080A   20290.00930685  .00000112  00000-0  26713-4 0  9997
2 20261  82.6002 302.2541 1202871 169.6016 193.2578 12.56136821418720
SL-14 R/B               
1 20262U 89080C   20290.14103380  .00000048  00000-0  99147-5 0  9997
2 20262  82.5975 356.6359 1237110   2.0228 358.5242 12.48946152413623
DELTA 2 R/B(1)          
1 20303U 89085B   20290.11816155  .00001657  00000-0  54549-4 0  9999
2 20303  35.6365 332.2351 0093854 169.9975 190.2645 15.27691295686523
DELTA 1 R/B             
1 20323U 89089B   20289.91218225  .00000006  00000-0  10767-4 0  9996
2 20323  97.1080  56.5826 0070992 210.9844 148.7156 14.48362556610300
ARIANE 40 R/B           
1 20443U 90005H   20290.15862962 -.00000006  00000-0  12708-4 0  9998
2 20443  98.5633 351.7078 0010036 349.8376  10.2606 14.38100996609720
DELTA 2 R/B(1)          
1 20453U 90008B   20290.18880539  .00000685  00000-0  40107-4 0  9991
2 20453  35.6256 264.2804 0280808 232.9742 124.4976 14.85715008629160
COSMOS 2058             
1 20465U 90010A   20290.14923652  .00000149  00000-0  10302-4 0  9996
2 20465  82.4894 157.2161 0016016 149.3037 210.9126 14.98055962667502
SL-14 R/B               
1 20466U 90010B   20289.57308899  .00000080  00000-0  72177-5 0  9995
2 20466  82.5011 314.3627 0019198 305.5033  54.4389 14.81395008657572
SL-14 R/B               
1 20511U 90018B   20289.86947285  .00000057  00000-0  43465-5 0  9996
2 20511  82.5211 260.9877 0019057  83.6579 337.1597 14.80050582630927
HST                     
1 20580U 90037B   20290.15945683  .00000476  00000-0  17949-4 0  9999
2 20580  28.4694 241.2735 0002468 314.2885 128.2485 15.09450113474302
SL-16 R/B               
1 20625U 90046B   20289.99450472  .00000195  00000-0  12627-3 0  9991
2 20625  70.9963 115.1879 0012543  54.2926 305.9361 14.14655765569917
COSMOS 2084             
1 20663U 90055A   20290.08478379 -.00000024  00000-0  15635-4 0  9996
2 20663  62.7935 125.4104 0034580 313.7052  46.1178 14.92122963641365
SL-6 R/B(2)             
1 20666U 90055D   20290.11706802 -.00000064  00000-0  12195-4 0  9990
2 20666  62.7871  41.4369 0062942   3.8725 356.2842 14.92371303642777
SL-8 R/B                
1 20775U 90078B   20290.05102188  .00002707  00000-0  13039-3 0  9998
2 20775  82.9234 127.1669 0571953 180.8515 179.1768 14.34765029523023
SL-8 R/B                
1 21088U 91006B   20290.15754000  .00000035  00000-0  20070-4 0  9991
2 21088  82.9460 195.4792 0023009 150.0230  10.9745 13.77148258493099
OKEAN-3                 
1 21397U 91039A   20289.62050012  .00000244  00000-0  20850-4 0  9990
2 21397  82.5222  62.4641 0019093 124.9877 235.3139 14.92969361591256
COSMOS 2151             
1 21422U 91042A   20290.16498774  .00000169  00000-0  14101-4 0  9993
2 21422  82.5017 168.0289 0013885 183.8964 176.2150 14.92162674589965
SL-14 R/B               
1 21423U 91042B   20290.02640834  .00000055  00000-0  41980-5 0  9995
2 21423  82.4916 264.2024 0016527 220.5050 139.4934 14.79801083582536
ERS-1                   
1 21574U 91050A   20290.16067902  .00000032  00000-0  25539-4 0  9991
2 21574  98.6115 243.6339 0031956 289.1364  70.6364 14.37762631532442
ARIANE 40 R/B           
1 21610U 91050F   20290.15685562  .00000019  00000-0  19597-4 0  9991
2 21610  98.4544 358.1235 0002157 248.0597 133.3155 14.40916543535363
INTERCOSMOS 25          
1 21819U 91086A   20290.12552915  .00000199  00000-0  35897-4 0  9993
2 21819  82.5893  54.0520 1516355  14.9810 349.1435 12.05144132258842
SL-8 R/B                
1 21876U 92008B   20289.54290469  .00000113  00000-0  10116-3 0  9990
2 21876  82.9229 293.1587 0033556 237.3352 234.6642 13.75663335438385
SL-8 R/B                
1 21938U 92020B   20289.93183326  .00000073  00000-0  60101-4 0  9994
2 21938  82.9327 177.1313 0030238  39.1927 331.7383 13.75278522430238
COSMOS 2219             
1 22219U 92076A   20289.93407740  .00000278  00000-0  17179-3 0  9990
2 22219  71.0609 176.0292 0019338 325.8476  34.1401 14.13652682439846
SL-16 R/B               
1 22220U 92076B   20289.63251736 -.00000244  00000-0 -98438-4 0  9994
2 22220  71.0027  18.5985 0014506 226.9786 232.2019 14.16461368442693
COSMOS 2221             
1 22236U 92080A   20289.59753810  .00000163  00000-0  15129-4 0  9995
2 22236  82.5099 350.1304 0015133 284.0286  75.9249 14.87955354487140
SL-16 R/B               
1 22285U 92093B   20290.11034600 -.00000075  00000-0 -14064-4 0  9993
2 22285  71.0212 179.3907 0002253  55.1003 305.0331 14.15045249434681
COSMOS 2228             
1 22286U 92094A   20289.53224672  .00000195  00000-0  18339-4 0  9999
2 22286  82.5175 306.5702 0022218  45.6004 314.7028 14.88174658503372
SL-16 R/B               
1 22566U 93016B   20290.00226672 -.00000288  00000-0 -12436-3 0  9997
2 22566  71.0077  32.7059 0007989  79.5654 280.6369 14.14965582423390
COSMOS 2242             
1 22626U 93024A   20290.19406958  .00000162  00000-0  14880-4 0  9995
2 22626  82.5219 334.1241 0019929  43.9760 316.3039 14.88028896487114
SL-16 R/B               
1 22803U 93059B   20290.13063972 -.00000248  00000-0 -99525-4 0  9995
2 22803  70.9910 204.9487 0018560 325.6945  34.2979 14.16829443400652
ARIANE 40 R/B           
1 22830U 93061H   20290.15815825 -.00000006  00000-0  14695-4 0  9998
2 22830  98.7516 340.3935 0010308 333.3582  26.7069 14.31457317412349
COSMOS 2278             
1 23087U 94023A   20289.88065420  .00000311  00000-0  18891-3 0  9997
2 23087  71.0549 335.9406 0008329 171.0132 189.1141 14.13814709366216
SL-16 R/B               
1 23088U 94023B   20290.17108365 -.00000316  00000-0 -13936-3 0  9990
2 23088  70.9976 247.7397 0002114   3.4823 356.6313 14.14684809367657
SL-16 R/B               
1 23343U 94074B   20290.18081868  .00000026  00000-0  10948-4 0  9996
2 23343  97.9851 342.0239 0008110 117.2379 308.6963 14.76840121396444
SL-16 R/B               
1 23405U 94077B   20289.92670040  .00000002  00000-0  25734-4 0  9997
2 23405  70.9839 177.1558 0005038 274.2201  85.8346 14.15228590337408
ERS-2                   
1 23560U 95021A   20290.09948977  .00000708  00000-0  33605-4 0  9995
2 23560  98.5539 100.2156 0004516 113.6024 246.5684 15.23341700360511
ARIANE 40+ R/B          
1 23561U 95021B   20289.63151644  .00000038  00000-0  27614-4 0  9990
2 23561  98.7121 330.5939 0005893 254.9606 218.3244 14.37986416335842
SL-16 R/B               
1 23705U 95058B   20290.17712948 -.00000207  00000-0 -82223-4 0  9998
2 23705  71.0237 355.6596 0014704 247.2386 112.7183 14.15137879289352
SL-16 R/B               
1 24298U 96051B   20290.18760680 -.00000106  00000-0 -31206-4 0  9990
2 24298  70.8444  16.0141 0016841 183.4246 176.6762 14.12493031243669
ORBVIEW 2 (SEASTAR)     
1 24883U 97037A   20289.86895613  .00000046  00000-0  32765-4 0  9995
2 24883  98.6222  42.6176 0003423 105.6061 254.5501 14.33574491225960
SL-16 R/B               
1 25400U 98043G   20290.09449243 -.00000021  00000-0  93512-5 0  9992
2 25400  98.6143 223.8305 0009736 350.2181   9.8808 14.25462205158437
SL-16 R/B               
1 25407U 98045B   20290.15402952 -.00000094  00000-0 -23787-4 0  9991
2 25407  71.0138   3.9402 0006553 167.7931 192.3352 14.15831794148439
ISS (ZARYA)             
1 25544U 98067A   20290.36920063  .00000576  00000-0  18417-4 0  9995
2 25544  51.6430 108.8569 0001463  36.4554  31.9399 15.49306678250807
SL-8 R/B                
1 25723U 99022C   20289.46134607  .00025958  00000-0  14681-3 0  9995
2 25723  48.4114  62.9992 0005672 237.5550 122.4857 15.78805060196912
CZ-4B R/B               
1 25732U 99025C   20290.08859705 -.00000025  00000-0  98910-5 0  9999
2 25732  98.9350 319.6030 0036632 225.6469 192.0465 14.17681907109057
OKEAN-O                 
1 25860U 99039A   20289.92170516  .00000036  00000-0  12769-4 0  9991
2 25860  98.2087 310.9841 0001210 115.8519 244.2815 14.76682818143293
SL-16 R/B               
1 25861U 99039B   20290.12996703  .00000012  00000-0  91173-5 0  9991
2 25861  98.2111 294.6844 0016672 127.4796 301.6845 14.78594720145599
DELTA 2 R/B             
1 25876U 99041E   20289.91264016 -.00000065  00000-0  29330-4 0  9994
2 25876  51.7654 194.8088 0531081 335.5008  22.1499 14.04469543 85558
